ADRAS-J                 
1 58992U 24034A   24150.49058098  .00002957  00000+0  27892-3 0  9994
2 58992  98.2117 122.6687 0045725 109.6657 250.9504 14.93835348 15078
